start=new Date('2021-10-17T00:00:00.000Z').valueOf();
sats=[{"ELEMENT_SET_NO":"999","CLASSIFICATION_TYPE":"U","ECCENTRICITY":"0.00088760","TLE_LINE2":"2 48880  97.5224  57.5551 0008876 265.1371  59.5209 15.16434534 17612","GP_ID":"187328023","EPOCH":"2021-10-16T20:00:01.999872","LAUNCH_DATE":"2021-06-30","MEAN_ANOMALY":"59.5209","OBJECT_TYPE":"PAYLOAD","REF_FRAME":"TEME","APOAPSIS":"522.749","MEAN_ELEMENT_THEORY":"SGP4","ARG_OF_PERICENTER":"265.1371","TLE_LINE1":"1 48880U 21059B   21289.83335648  .00039326  00000-0  20148-2 0  9997","COUNTRY_CODE":"US","MEAN_MOTION":"15.16434534","MEAN_MOTION_DOT":"0.00039326","PERIAPSIS":"510.509","SITE":"AFETR","CENTER_NAME":"EARTH","OBJECT_ID":"2021-059B","BSTAR":"0.00201480000000","DECAY_DATE":null,"OBJECT_NAME":"STARLINK-3004","PERIOD":"94.960","INCLINATION":"97.5224","RA_OF_ASC_NODE":"57.5551","EPHEMERIS_TYPE":"0","RCS_SIZE":"LARGE","TIME_SYSTEM":"UTC","SEMIMAJOR_AXIS":"6894.764","FILE":"3166275","MEAN_MOTION_DDOT":"0.0000000000000","NORAD_CAT_ID":"48880","REV_AT_EPOCH":"1761"},{"LAUNCH_DATE":"2021-06-30","OBJECT_TYPE":"PAYLOAD","MEAN_ANOMALY":"40.2818","REF_FRAME":"TEME","CLASSIFICATION_TYPE":"U","ELEMENT_SET_NO":"999","ECCENTRICITY":"0.00010640","GP_ID":"187329171","TLE_LINE2":"2 48881  97.5231  57.5601 0001064 277.0504  40.2818 15.15954128 17617","EPOCH":"2021-10-16T20:00:01.999872","MEAN_MOTION_DOT":"0.00038914","PERIAPSIS":"517.352","APOAPSIS":"518.819","ARG_OF_PERICENTER":"277.0504","MEAN_ELEMENT_THEORY":"SGP4","TLE_LINE1":"1 48881U 21059C   21289.83335648  .00038914  00000-0  20230-2 0  9992","COUNTRY_CODE":"US","MEAN_MOTION":"15.15954128","DECAY_DATE":null,"OBJECT_NAME":"STARLINK-3005","PERIOD":"94.990","INCLINATION":"97.5231","RA_OF_ASC_NODE":"57.5601","CENTER_NAME":"EARTH","SITE":"AFETR","OBJECT_ID":"2021-059C","BSTAR":"0.00202300000000","SEMIMAJOR_AXIS":"6896.220","FILE":"3166295","MEAN_MOTION_DDOT":"0.0000000000000","NORAD_CAT_ID":"48881","REV_AT_EPOCH":"1761","RCS_SIZE":"LARGE","EPHEMERIS_TYPE":"0","TIME_SYSTEM":"UTC"},{"TIME_SYSTEM":"UTC","EPHEMERIS_TYPE":"0","RCS_SIZE":"LARGE","REV_AT_EPOCH":"525","NORAD_CAT_ID":"49131","MEAN_MOTION_DDOT":"0.0000000000000","FILE":"3166548","SEMIMAJOR_AXIS":"6737.688","BSTAR":"-0.00039277000000","OBJECT_ID":"2021-082B","SITE":"AFWTR","CENTER_NAME":"EARTH","RA_OF_ASC_NODE":"34.7286","INCLINATION":"70.0007","OBJECT_NAME":"STARLINK-3096","PERIOD":"91.733","DECAY_DATE":null,"MEAN_MOTION":"15.69771525","TLE_LINE1":"1 49131U 21082B   21289.91668981 -.00046884  00000-0 -39277-3 0  9994","COUNTRY_CODE":"US","MEAN_ELEMENT_THEORY":"SGP4","ARG_OF_PERICENTER":"285.8444","APOAPSIS":"361.962","PERIAPSIS":"357.143","MEAN_MOTION_DOT":"-0.00046884","EPOCH":"2021-10-16T22:00:01.999584","GP_ID":"187334853","TLE_LINE2":"2 49131  70.0007  34.7286 0003576 285.8444 273.0168 15.69771525  5257","ECCENTRICITY":"0.00035760","CLASSIFICATION_TYPE":"U","ELEMENT_SET_NO":"999","REF_FRAME":"TEME","OBJECT_TYPE":"PAYLOAD","MEAN_ANOMALY":"273.0168","LAUNCH_DATE":"2021-09-14"},{"ELEMENT_SET_NO":"999","CLASSIFICATION_TYPE":"U","TLE_LINE2":"2 49132  70.0002  34.7309 0003826 287.8097 268.9681 15.69770857  5253","GP_ID":"187335158","EPOCH":"2021-10-16T22:00:01.999584","ECCENTRICITY":"0.00038260","LAUNCH_DATE":"2021-09-14","OBJECT_TYPE":"PAYLOAD","MEAN_ANOMALY":"268.9681","REF_FRAME":"TEME","ARG_OF_PERICENTER":"287.8097","MEAN_ELEMENT_THEORY":"SGP4","APOAPSIS":"362.132","MEAN_MOTION":"15.69770857","TLE_LINE1":"1 49132U 21082C   21289.91668981 -.00046379  00000-0 -38849-3 0  9998","COUNTRY_CODE":"US","MEAN_MOTION_DOT":"-0.00046379","PERIAPSIS":"356.977","OBJECT_ID":"2021-082C","CENTER_NAME":"EARTH","SITE":"AFWTR","BSTAR":"-0.00038849000000","DECAY_DATE":null,"INCLINATION":"70.0002","RA_OF_ASC_NODE":"34.7309","OBJECT_NAME":"STARLINK-3090","PERIOD":"91.733","RCS_SIZE":"LARGE","EPHEMERIS_TYPE":"0","TIME_SYSTEM":"UTC","FILE":"3166547","SEMIMAJOR_AXIS":"6737.690","NORAD_CAT_ID":"49132","REV_AT_EPOCH":"525","MEAN_MOTION_DDOT":"0.0000000000000"},{"APOAPSIS":"361.902","MEAN_ELEMENT_THEORY":"SGP4","ARG_OF_PERICENTER":"289.0444","COUNTRY_CODE":"US","TLE_LINE1":"1 49133U 21082D   21289.91668981 -.00047558  00000-0 -39860-3 0  9993","MEAN_MOTION":"15.69764643","MEAN_MOTION_DOT":"-0.00047558","PERIAPSIS":"357.243","ELEMENT_SET_NO":"999","CLASSIFICATION_TYPE":"U","ECCENTRICITY":"0.00034570","EPOCH":"2021-10-16T22:00:01.999584","GP_ID":"187334840","TLE_LINE2":"2 49133  70.0006  34.7253 0003457 289.0444 271.9531 15.69764643  5250","LAUNCH_DATE":"2021-09-14","REF_FRAME":"TEME","OBJECT_TYPE":"PAYLOAD","MEAN_ANOMALY":"271.9531","EPHEMERIS_TYPE":"0","RCS_SIZE":"LARGE","TIME_SYSTEM":"UTC","SEMIMAJOR_AXIS":"6737.707","FILE":"3166547","MEAN_MOTION_DDOT":"0.0000000000000","REV_AT_EPOCH":"525","NORAD_CAT_ID":"49133","CENTER_NAME":"EARTH","SITE":"AFWTR","OBJECT_ID":"2021-082D","BSTAR":"-0.00039860000000","DECAY_DATE":null,"OBJECT_NAME":"STARLINK-3077","PERIOD":"91.733","RA_OF_ASC_NODE":"34.7253","INCLINATION":"70.0006"},{"ARG_OF_PERICENTER":"291.0862","MEAN_ELEMENT_THEORY":"SGP4","APOAPSIS":"362.308","MEAN_MOTION":"15.69680405","TLE_LINE1":"1 49134U 21082E   21289.66667824  .00050637  00000-0  42458-3 0  9998","COUNTRY_CODE":"US","MEAN_MOTION_DOT":"0.00050637","PERIAPSIS":"357.319","CLASSIFICATION_TYPE":"U","ELEMENT_SET_NO":"999","GP_ID":"187359082","TLE_LINE2":"2 49134  70.0018  35.4180 0003702 291.0862 306.0068 15.69680405  3695","EPOCH":"2021-10-16T16:00:00.999936","ECCENTRICITY":"0.00037020","LAUNCH_DATE":"2021-09-14","MEAN_ANOMALY":"306.0068","OBJECT_TYPE":"PAYLOAD","REF_FRAME":"TEME","RCS_SIZE":"LARGE","EPHEMERIS_TYPE":"0","TIME_SYSTEM":"UTC","FILE":"3166610","SEMIMAJOR_AXIS":"6737.948","NORAD_CAT_ID":"49134","REV_AT_EPOCH":"369","MEAN_MOTION_DDOT":"0.0000000000000","OBJECT_ID":"2021-082E","SITE":"AFWTR","CENTER_NAME":"EARTH","BSTAR":"0.00042458000000","DECAY_DATE":null,"INCLINATION":"70.0018","RA_OF_ASC_NODE":"35.4180","OBJECT_NAME":"STARLINK-3078","PERIOD":"91.738"},{"SEMIMAJOR_AXIS":"6737.752","FILE":"3166547","MEAN_MOTION_DDOT":"0.0000000000000","REV_AT_EPOCH":"525","NORAD_CAT_ID":"49135","RCS_SIZE":"LARGE","EPHEMERIS_TYPE":"0","TIME_SYSTEM":"UTC","DECAY_DATE":null,"PERIOD":"91.734","OBJECT_NAME":"STARLINK-3073","RA_OF_ASC_NODE":"34.7190","INCLINATION":"70.0007","SITE":"AFWTR","CENTER_NAME":"EARTH","OBJECT_ID":"2021-082F","BSTAR":"-0.00038010000000","MEAN_MOTION_DOT":"-0.00045342","PERIAPSIS":"357.344","APOAPSIS":"361.890","MEAN_ELEMENT_THEORY":"SGP4","ARG_OF_PERICENTER":"291.3643","COUNTRY_CODE":"US","TLE_LINE1":"1 49135U 21082F   21289.91668981 -.00045342  00000-0 -38010-3 0  9990","MEAN_MOTION":"15.69749022","LAUNCH_DATE":"2021-09-14","REF_FRAME":"TEME","OBJECT_TYPE":"PAYLOAD","MEAN_ANOMALY":"273.8648","ELEMENT_SET_NO":"999","CLASSIFICATION_TYPE":"U","ECCENTRICITY":"0.00033740","EPOCH":"2021-10-16T22:00:01.999584","GP_ID":"187334835","TLE_LINE2":"2 49135  70.0007  34.7190 0003374 291.3643 273.8648 15.69749022  5252"},{"BSTAR":"-0.00113060000000","CENTER_NAME":"EARTH","SITE":"AFWTR","OBJECT_ID":"2021-082G","PERIOD":"91.731","OBJECT_NAME":"STARLINK-3084","INCLINATION":"70.0016","RA_OF_ASC_NODE":"34.7228","DECAY_DATE":null,"TIME_SYSTEM":"UTC","EPHEMERIS_TYPE":"0","RCS_SIZE":"LARGE","MEAN_MOTION_DDOT":"0.0000000000000","NORAD_CAT_ID":"49136","REV_AT_EPOCH":"525","SEMIMAJOR_AXIS":"6737.569","FILE":"3166547","ECCENTRICITY":"0.00036240","TLE_LINE2":"2 49136  70.0016  34.7228 0003624 285.3840 277.7200 15.69813115  5257","GP_ID":"187334826","EPOCH":"2021-10-16T22:00:01.999584","ELEMENT_SET_NO":"999","CLASSIFICATION_TYPE":"U","MEAN_ANOMALY":"277.7200","OBJECT_TYPE":"PAYLOAD","REF_FRAME":"TEME","LAUNCH_DATE":"2021-09-14","TLE_LINE1":"1 49136U 21082G   21289.91668981 -.00133417  00000-0 -11306-2 0  9990","COUNTRY_CODE":"US","MEAN_MOTION":"15.69813115","APOAPSIS":"361.875","MEAN_ELEMENT_THEORY":"SGP4","ARG_OF_PERICENTER":"285.3840","PERIAPSIS":"356.992","MEAN_MOTION_DOT":"-0.00133417"},{"DECAY_DATE":null,"RA_OF_ASC_NODE":"34.7168","INCLINATION":"70.0008","PERIOD":"91.736","OBJECT_NAME":"STARLINK-3055","OBJECT_ID":"2021-082H","CENTER_NAME":"EARTH","SITE":"AFWTR","BSTAR":"-0.00038401000000","FILE":"3166548","SEMIMAJOR_AXIS":"6737.820","REV_AT_EPOCH":"525","NORAD_CAT_ID":"49137","MEAN_MOTION_DDOT":"0.0000000000000","RCS_SIZE":"LARGE","EPHEMERIS_TYPE":"0","TIME_SYSTEM":"UTC","LAUNCH_DATE":"2021-09-14","REF_FRAME":"TEME","OBJECT_TYPE":"PAYLOAD","MEAN_ANOMALY":"278.9279","CLASSIFICATION_TYPE":"U","ELEMENT_SET_NO":"999","EPOCH":"2021-10-16T22:00:01.999584","GP_ID":"187334863","TLE_LINE2":"2 49137  70.0008  34.7168 0003932 288.4565 278.9279 15.69725429  5251","ECCENTRICITY":"0.00039320","MEAN_MOTION_DOT":"-0.00045766","PERIAPSIS":"357.035","ARG_OF_PERICENTER":"288.4565","MEAN_ELEMENT_THEORY":"SGP4","APOAPSIS":"362.334","MEAN_MOTION":"15.69725429","COUNTRY_CODE":"US","TLE_LINE1":"1 49137U 21082H   21289.91668981 -.00045766  00000-0 -38401-3 0  9996"},{"CLASSIFICATION_TYPE":"U","ELEMENT_SET_NO":"999","ECCENTRICITY":"0.00034990","EPOCH":"2021-10-16T22:00:01.999584","GP_ID":"187335166","TLE_LINE2":"2 49138  70.0017  34.7102 0003499 291.4631 282.2802 15.69753550  5252","LAUNCH_DATE":"2021-09-14","REF_FRAME":"TEME","OBJECT_TYPE":"PAYLOAD","MEAN_ANOMALY":"282.2802","APOAPSIS":"361.962","ARG_OF_PERICENTER":"291.4631","MEAN_ELEMENT_THEORY":"SGP4","TLE_LINE1":"1 49138U 21082J   21289.91668981 -.00045644  00000-0 -38257-3 0  9991","COUNTRY_CODE":"US","MEAN_MOTION":"15.69753550","MEAN_MOTION_DOT":"-0.00045644","PERIAPSIS":"357.247","CENTER_NAME":"EARTH","SITE":"AFWTR","OBJECT_ID":"2021-082J","BSTAR":"-0.00038257000000","DECAY_DATE":null,"OBJECT_NAME":"STARLINK-3058","PERIOD":"91.734","RA_OF_ASC_NODE":"34.7102","INCLINATION":"70.0017","EPHEMERIS_TYPE":"0","RCS_SIZE":"LARGE","TIME_SYSTEM":"UTC","SEMIMAJOR_AXIS":"6737.739","FILE":"3166555","MEAN_MOTION_DDOT":"0.0000000000000","REV_AT_EPOCH":"525","NORAD_CAT_ID":"49138"}];
